[{"OBJECT_NAME":"STARLINK-6055","OBJECT_ID":"2023-064V","EPOCH":"2026-03-09T12:55:56.635680","MEAN_MOTION":14.98328608,"ECCENTRICITY":0.00034716,"INCLINATION":69.9993,"RA_OF_ASC_NODE":124.963,"ARG_OF_PERICENTER":272.0623,"MEAN_ANOMALY":88.0138,"EPHEMERIS_TYPE":0,"CLASSIFICATION_TYPE":"U","NORAD_CAT_ID":56467,"ELEMENT_SET_NO":999,"REV_AT_EPOCH":15571,"BSTAR":0.00018471053,"MEAN_MOTION_DOT":2.112e-5,"MEAN_MOTION_DDOT":0},{"OBJECT_NAME":"SITRO-AIS 14","OBJECT_ID":"2024-199T","EPOCH":"2026-03-09T22:54:28.226304","MEAN_MOTION":14.97122201,"ECCENTRICITY":0.00071847,"INCLINATION":97.3313,"RA_OF_ASC_NODE":274.5243,"ARG_OF_PERICENTER":48.7211,"MEAN_ANOMALY":311.463,"EPHEMERIS_TYPE":0,"CLASSIFICATION_TYPE":"U","NORAD_CAT_ID":61752,"ELEMENT_SET_NO":999,"REV_AT_EPOCH":12027,"BSTAR":0.00031190269,"MEAN_MOTION_DOT":3.549e-5,"MEAN_MOTION_DDOT":0}]
